#cP2022  6 29  0  0  0.00000000      96 ORBIT IGb14 HLM  IGS
## 2216 259200.00000000   900.00000000 59759 0.0000000000000
+   32   G01G02G03G04G05G06G07G08G09G10G11G12G13G14G15G16G17
+        G18G19G20G21G22G23G24G25G26G27G28G29G30G31G32  0  0
+          0  0  0  0  0  0  0  0  0  0  0  0  0  0  0  0  0
+          0  0  0  0  0  0  0  0  0  0  0  0  0  0  0  0  0
+          0  0  0  0  0  0  0  0  0  0  0  0  0  0  0  0  0
++         1  1  2  2  2  1  1  2  1  2  2  2  2  2  2  2  2
++         2  1  2  2  1  2  2  2  2  2  2  2  1  1  1  0  0
++         0  0  0  0  0  0  0  0  0  0  0  0  0  0  0  0  0
++         0  0  0  0  0  0  0  0  0  0  0  0  0  0  0  0  0
++         0  0  0  0  0  0  0  0  0  0  0  0  0  0  0  0  0
%c G  cc GPS ccc cccc cccc cccc cccc ccccc ccccc ccccc ccccc
%c cc cc ccc ccc cccc cccc cccc cccc ccccc ccccc ccccc ccccc
%f  1.2500000  1.025000000  0.00000000000  0.000000000000000
%f  0.0000000  0.000000000  0.00000000000  0.000000000000000
%i    0    0    0    0      0      0      0      0         0
%i    0    0    0    0      0      0      0      0         0
/* FINAL ORBIT COMBINATION FROM WEIGHTED AVERAGE OF:        
/* cod emr esa gfz grg jpl mit ngs sio                      
/* REFERENCED TO IGS TIME (IGST) AND TO WEIGHTED MEAN POLE: 
/* PCV:IGS14_2215 OL/AL:FES2004  NONE     Y  ORB:CMB CLK:CMB
*  2022  6 29  2 15  0.00000000
PG01 -14168.301267   2992.796339  21959.546437    331.727633  4  5  2  89       
PG02  14471.974625  18373.833358 -11783.929266   -652.163964  3  4  5  91       
PG03 -21766.680191  10483.039534  10783.393587   -292.672776  5  7  4  91       
PG04 -24075.427241    225.372451 -11301.768135   -151.899944  6  4  5  91       
PG05  17331.288571   2396.331161 -20196.819047    -87.236811  3  6  8 103       
PG06   5815.563404  25872.205870    258.818275    363.095833  5  3  3  76       
PG07  -7475.094188  19067.366149 -16223.484567    320.858898  5  3  6  90       
PG08 -26106.964974  -4605.503304   3560.045337    -74.048136  7  5  6 102       
PG09 -17017.202128   8850.135150 -18456.073026   -324.080178  3  5  4 100       
PG10   7181.362427 -20741.736955  14886.355553   -472.810945  6  5  5 103       
PG11  12411.950346  19908.949726 -12476.507352    -12.415851  6  6  6  87       
PG12  22002.401733  -6413.930106  13067.021263   -238.386748  5     4  95       
PG13  22553.566763  13555.266444  -4417.023087    338.622754  4  4  7  82       
PG14  -9178.637111  20856.954919  13563.120116   -111.985844  7  8  5  99       
PG15  26434.806579   2071.041172   2941.100164    -49.529834  5  7  5  65       
PG16 -13307.287057  -8481.031094 -21696.714326   -512.144538  8  8  9  65       
PG17    -26.189847  15670.239499  21869.362391    630.713629  7  5  6  76       
PG18   7591.394541 -19085.122869 -16784.939314    128.643547  8  6  7  51       
PG19   9579.489122  17051.308447  17820.385476    176.890251  4  4  5 101       
PG20   9199.953506  13180.990314 -21167.725840    507.519129  7  4  5  81       
PG21 -17019.997932  -7269.892941  19925.422396    161.267986  6  4     76       
PG22 -11949.603817 -17262.883951  16791.116517    283.629119  6  5  6  73       
PG23  15637.143343 -20733.479402   5280.085675    -30.462772  8  9  8 101       
PG24  16377.724965    987.782265  20645.681569    209.872399  4  3  6  94       
PG25  19700.223929 -17510.877248   1399.225688    343.033610  7  4  6  94       
PG26  -4972.992016 -16422.350836 -20288.275211    215.207050  7  7  6  70       
PG27 -21700.648457 -12905.115969  -9075.990101    218.764520  6  4  8  82       
PG28  -1177.760417  18254.100919  19848.438364    328.453115  9  6  5 134       
PG29  17023.691100  -7221.971951 -19146.173684   -528.608243  5  4  4  80       
PG30   -734.437706  25057.900366  -8290.637344   -532.700958  5  5  4  66       
PG31  -7235.476057 -25172.209147  -2599.447812   -183.676521  4  3  5  85       
PG32  -3712.416642 -16311.096269  20818.537851   -162.948911  5  4  6  88       
*  2022  6 29  2 30  0.00000000
PG01 -14806.734428    513.189722  21768.519697    331.720752  4  5  1  87       
PG02  14686.878810  19674.689482  -9274.962054   -652.163608  4  4  5  85       
PG03 -20922.688881   9361.557041  13200.316256   -292.683011  5  6  4  93       
PG04 -25111.082521   -315.010774  -8772.157567   -151.896095  6  5  5 105       
PG05  15818.306285   4164.314862 -21124.730606    -87.238046  3  6  8 106       
PG06   5588.398752  25737.050009   3162.192493    363.110166  5  4  3  94       
PG07  -8203.509262  17142.838505 -17933.657650    320.857641  5  4  5  82       
PG08 -26296.443741  -4877.645877    734.062935    -74.049483  7  5  7 109       
PG09 -18930.041375   8226.657640 -16804.793779   -324.076893  2  5  4 100       
PG10   8407.410181 -21723.700232  12626.295270   -472.823822  5  5  5  98       
PG11  12474.938632  21210.852138 -10029.377256    -12.414301  6  6  6  89       
PG12  20874.595404  -5176.378622  15249.835857   -238.392110  5     4  94       
PG13  21880.504227  13503.595399  -7175.749594    338.628979  4  4  7  79       
PG14 -10378.746387  21657.967321  11234.286422   -111.986145  7  8  6  90       
PG15  26614.054675   2414.719896    172.172937    -49.527207  5  6  5  57       
PG16 -11448.952882 -10058.814419 -22044.370274   -512.146972  8  8  9  88       
PG17  -2340.199519  14933.824414  22268.285682    630.717695  7  5  5  85       
PG18   8217.708609 -17161.712394 -18491.795383    128.633576  8  7  8  89       
PG19   7521.103256  16379.225663  19331.639785    176.894539  4  4  5  94       
PG20   7755.643204  15081.143588 -20487.079631    507.516433  7  5  5  75       
PG21 -17645.378213  -9235.061383  18531.851347    161.268278  6  3  2  59       
PG22 -10078.083311 -16740.279017  18488.730046    283.635006  6  5  6  72       
PG23  16112.502147 -20896.668339   2445.748539    -30.464514  7  9  8 105       
PG24  17107.719449   3254.800179  19854.138905    209.864136  4  4  6  99       
PG25  19656.948349 -17054.387674   4238.385729    343.037655  6  3  5  97       
PG26  -3374.724070 -18022.851882 -19197.362361    215.209119  7  6  7  80       
PG27 -20554.503374 -12776.892096 -11597.108234    218.766302  6  4  8  97       
PG28  -2837.225580  19518.332307  18407.084567    328.445523  9  6  5 133       
PG29  18957.697519  -6442.438804 -17541.756003   -528.611585  5  4  5  72       
PG30  -1312.982686  24054.047290 -10809.215181   -532.701930  5  5  4  86       
PG31  -6964.630107 -25364.051450    266.952739   -183.677864  4  2  6  88       
PG32  -1385.297865 -15773.224484  21494.826985   -162.957623  5  4  5  78       
*  2022  6 29  2 45  0.00000000
PG01 -15567.466164  -1881.354080  21193.137011    331.713811  3  5  2  82       
PG02  14854.481742  20683.736176  -6600.516719   -652.163476  4  3  5  94       
PG03 -19966.989351   7998.761411  15387.240042   -292.693215  4  6  4  89       
PG04 -25886.980705   -732.284112  -6092.256773   -151.892279  7  5  5  98       
PG05  14347.462673   6075.826187 -21695.508671    -87.239209  4  6  7 110       
PG06   5251.279175  25304.466094   6010.937644    363.124478  5  4  2  90       
PG07  -9080.383773  15087.417910 -19319.789677    320.856760  5  4  5  75       
PG08 -26187.099682  -5083.269931  -2104.283483    -74.050925  7  5  7  99       
PG09 -20673.302571   7738.014926 -14866.143637   -324.073656  2  4  3 100       
PG10   9403.645508 -22568.120411  10147.369311   -472.836738  4  6  5  99       
PG11  12529.567393  22231.291135  -7409.878913    -12.412790  6  6  6  89       
PG12  19646.263170  -3715.073330  17164.338451   -238.397308  5  1  4  87       
PG13  20919.186359  13388.225031  -9812.832639    338.635384  4  4  7  83       
PG14 -11347.605831  22319.561412   8711.103610   -111.986412  7  9  6  90       
PG15  26500.411383   2723.646712  -2599.704651    -49.524478  5  6  5  54       
PG16  -9662.775483 -11750.680995 -22022.760913   -512.149305  7  8  9  59       
PG17  -4714.117935  14322.487582  22298.933300    630.722023  6  5  5  65       
PG18   8998.754464 -15108.038728 -19879.476101    128.623535  8  7  8  80       
PG19   5279.646828  15773.845193  20505.316067    176.898772  4  4  5  76       
PG20   6460.458285  16967.441714 -19455.296347    507.513496  7  5  5  77       
PG21 -18309.326892 -11007.123388  16841.443529    161.268445  6  3  3  71       
PG22  -8017.539327 -16270.484916  19880.084651    283.640696  6  5  6  60       
PG23  16370.932286 -20835.433709   -430.972751    -30.466201  7  9  8 103       
PG24  17900.103171   5378.767837  18715.074066    209.855916  4  5  6  95       
PG25  19428.100035 -16353.008297   7002.956659    343.041638  6  3  4  81       
PG26  -1940.899675 -19589.186754 -17775.632602    215.211241  7  6  7  75       
PG27 -19137.230210 -12658.680266 -13924.737769    218.768072  6  3  8  76       
PG28  -4298.152481  20750.694082  16663.455092    328.437965  9  6  5 137       
PG29  20740.655297  -5824.658163 -15637.492130   -528.615020  4  4  4  51       
PG30  -2021.471690  22816.381418 -13138.443915   -532.702881  5  5  4  74       
PG31  -6605.737726 -25256.444328   3128.608846   -183.679392  3  2  6  91       
PG32   1022.725125 -15346.836521  21806.907803   -162.966276  4  4  5  85       
EOF
